CTC1_L_00035001-01
1 75354U 23673CG  26070.40831019  .00000000  00000+0  00000-0 0  9995
2 75354  80.0000   0.0000 0000000   0.0000   0.0000 15.69614517    10
CTC1_L_00035001-02
1 75355U 23890HY  26070.40831019  .00000000  00000+0  00000-0 0  9997
2 75355  80.0000   0.0000 0000000   0.0000  90.0000 15.69614517    10
CTC1_L_00035001-03
1 75356U 22253UG  26070.40831019  .00000000  00000+0  00000-0 0  9990
2 75356  80.0000   0.0000 0000000   0.0000 180.0000 15.69614517    11
CTC1_L_00035001-04
1 75357U 25499AJ  26070.40831019  .00000000  00000+0  00000-0 0  9996
2 75357  80.0000   0.0000 0000000   0.0000 270.0000 15.69614517    12
CTC1_L_00035002-01
1 75358U 22572EM  26070.40831019  .00000000  00000+0  00000-0 0  9996
2 75358  80.0000  12.0000 0000000   0.0000  12.0000 15.69614517    10
CTC1_L_00035002-02
1 75359U 22226WH  26070.40831019  .00000000  00000+0  00000-0 0  9993
2 75359  80.0000  12.0000 0000000   0.0000 102.0000 15.69614517    11
CTC1_L_00035002-03
1 75360U 24077WG  26070.40831019  .00000000  00000+0  00000-0 0  9991
2 75360  80.0000  12.0000 0000000   0.0000 192.0000 15.69614517    12
CTC1_L_00035002-04
1 75361U 23716SQ  26070.40831019  .00000000  00000+0  00000-0 0  9991
2 75361  80.0000  12.0000 0000000   0.0000 282.0000 15.69614517    13
CTC1_L_00035003-01
1 75362U 25781XF  26070.40831019  .00000000  00000+0  00000-0 0  9996
2 75362  80.0000  24.0000 0000000   0.0000  24.0000 15.69614517    11
CTC1_L_00035003-02
1 75363U 24716DN  26070.40831019  .00000000  00000+0  00000-0 0  9994
2 75363  80.0000  24.0000 0000000   0.0000 114.0000 15.69614517    12
CTC1_L_00035003-03
1 75364U 23780PJ  26070.40831019  .00000000  00000+0  00000-0 0  9995
2 75364  80.0000  24.0000 0000000   0.0000 204.0000 15.69614517    13
CTC1_L_00035003-04
1 75365U 23361IC  26070.40831019  .00000000  00000+0  00000-0 0  9991
2 75365  80.0000  24.0000 0000000   0.0000 294.0000 15.69614517    13
CTC1_L_00035004-01
1 75366U 26132XX  26070.40831019  .00000000  00000+0  00000-0 0  9991
2 75366  80.0000  36.0000 0000000   0.0000  36.0000 15.69614517    11
CTC1_L_00035004-02
1 75367U 25771XH  26070.40831019  .00000000  00000+0  00000-0 0  9990
2 75367  80.0000  36.0000 0000000   0.0000 126.0000 15.69614517    12
CTC1_L_00035004-03
1 75368U 22023IQ  26070.40831019  .00000000  00000+0  00000-0 0  9998
2 75368  80.0000  36.0000 0000000   0.0000 216.0000 15.69614517    13
CTC1_L_00035004-04
1 75369U 24105MF  26070.40831019  .00000000  00000+0  00000-0 0  9992
2 75369  80.0000  36.0000 0000000   0.0000 306.0000 15.69614517    14
CTC1_L_00035005-01
1 75370U 25123KS  26070.40831019  .00000000  00000+0  00000-0 0  9995
2 75370  80.0000  48.0000 0000000   0.0000  48.0000 15.69614517    12
CTC1_L_00035005-02
1 75371U 26088PL  26070.40831019  .00000000  00000+0  00000-0 0  9997
2 75371  80.0000  48.0000 0000000   0.0000 138.0000 15.69614517    13
CTC1_L_00035005-03
1 75372U 22381FW  26070.40831019  .00000000  00000+0  00000-0 0  9990
2 75372  80.0000  48.0000 0000000   0.0000 228.0000 15.69614517    14
CTC1_L_00035005-04
1 75373U 25501BZ  26070.40831019  .00000000  00000+0  00000-0 0  9998
2 75373  80.0000  48.0000 0000000   0.0000 318.0000 15.69614517    15
CTC1_L_00035006-01
1 75374U 22749L   26070.40831019  .00000000  00000+0  00000-0 0  9990
2 75374  80.0000  60.0000 0000000   0.0000  60.0000 15.69614517    14
CTC1_L_00035006-02
1 75375U 24836VA  26070.40831019  .00000000  00000+0  00000-0 0  9990
2 75375  80.0000  60.0000 0000000   0.0000 150.0000 15.69614517    15
CTC1_L_00035006-03
1 75376U 23155Q   26070.40831019  .00000000  00000+0  00000-0 0  9994
2 75376  80.0000  60.0000 0000000   0.0000 240.0000 15.69614517    16
CTC1_L_00035006-04
1 75377U 23454TS  26070.40831019  .00000000  00000+0  00000-0 0  9997
2 75377  80.0000  60.0000 0000000   0.0000 330.0000 15.69614517    17
CTC1_L_00035007-01
1 75378U 26696NZ  26070.40831019  .00000000  00000+0  00000-0 0  9999
2 75378  80.0000  72.0000 0000000   0.0000  72.0000 15.69614517    14
CTC1_L_00035007-02
1 75379U 25824A   26070.40831019  .00000000  00000+0  00000-0 0  9992
2 75379  80.0000  72.0000 0000000   0.0000 162.0000 15.69614517    15
CTC1_L_00035007-03
1 75380U 26996AM  26070.40831019  .00000000  00000+0  00000-0 0  9995
2 75380  80.0000  72.0000 0000000   0.0000 252.0000 15.69614517    17
CTC1_L_00035007-04
1 75381U 25558KT  26070.40831019  .00000000  00000+0  00000-0 0  9999
2 75381  80.0000  72.0000 0000000   0.0000 342.0000 15.69614517    18
CTC1_L_00035008-01
1 75382U 25626GZ  26070.40831019  .00000000  00000+0  00000-0 0  9996
2 75382  80.0000  84.0000 0000000   0.0000  84.0000 15.69614517    15
CTC1_L_00035008-02
1 75383U 23454LX  26070.40831019  .00000000  00000+0  00000-0 0  9994
2 75383  80.0000  84.0000 0000000   0.0000 174.0000 15.69614517    16
CTC1_L_00035008-03
1 75384U 26323TH  26070.40831019  .00000000  00000+0  00000-0 0  9993
2 75384  80.0000  84.0000 0000000   0.0000 264.0000 15.69614517    17
CTC1_L_00035008-04
1 75385U 23712RL  26070.40831019  .00000000  00000+0  00000-0 0  9993
2 75385  80.0000  84.0000 0000000   0.0000 354.0000 15.69614517    18
CTC1_L_00035009-01
1 75386U 24766XI  26070.40831019  .00000000  00000+0  00000-0 0  9994
2 75386  80.0000  96.0000 0000000   0.0000  96.0000 15.69614517    15
CTC1_L_00035009-02
1 75387U 23401GQ  26070.40831019  .00000000  00000+0  00000-0 0  9990
2 75387  80.0000  96.0000 0000000   0.0000 186.0000 15.69614517    16
CTC1_L_00035009-03
1 75388U 22521RR  26070.40831019  .00000000  00000+0  00000-0 0  9993
2 75388  80.0000  96.0000 0000000   0.0000 276.0000 15.69614517    17
CTC1_L_00035009-04
1 75389U 23664UN  26070.40831019  .00000000  00000+0  00000-0 0  9993
2 75389  80.0000  96.0000 0000000   0.0000   6.0000 15.69614517    19
CTC1_L_00035010-01
1 75390U 25093MX  26070.40831019  .00000000  00000+0  00000-0 0  9993
2 75390  80.0000 108.0000 0000000   0.0000 108.0000 15.69614517    18
CTC1_L_00035010-02
1 75391U 24391SQ  26070.40831019  .00000000  00000+0  00000-0 0  9994
2 75391  80.0000 108.0000 0000000   0.0000 198.0000 15.69614517    18
CTC1_L_00035010-03
1 75392U 22928JN  26070.40831019  .00000000  00000+0  00000-0 0  9999
2 75392  80.0000 108.0000 0000000   0.0000 288.0000 15.69614517    19
CTC1_L_00035010-04
1 75393U 22147EV  26070.40831019  .00000000  00000+0  00000-0 0  9993
2 75393  80.0000 108.0000 0000000   0.0000  18.0000 15.69614517    11
CTC1_L_00035011-01
1 75394U 22801SH  26070.40831019  .00000000  00000+0  00000-0 0  9991
2 75394  80.0000 120.0000 0000000   0.0000 120.0000 15.69614517    10
CTC1_L_00035011-02
1 75395U 25790XE  26070.40831019  .00000000  00000+0  00000-0 0  9992
2 75395  80.0000 120.0000 0000000   0.0000 210.0000 15.69614517    11
CTC1_L_00035011-03
1 75396U 24144U   26070.40831019  .00000000  00000+0  00000-0 0  9995
2 75396  80.0000 120.0000 0000000   0.0000 300.0000 15.69614517    12
CTC1_L_00035011-04
1 75397U 25530AT  26070.40831019  .00000000  00000+0  00000-0 0  9996
2 75397  80.0000 120.0000 0000000   0.0000  30.0000 15.69614517    13
CTC1_L_00035012-01
1 75398U 22229GF  26070.40831019  .00000000  00000+0  00000-0 0  9999
2 75398  80.0000 132.0000 0000000   0.0000 132.0000 15.69614517    10
CTC1_L_00035012-02
1 75399U 24254OV  26070.40831019  .00000000  00000+0  00000-0 0  9990
2 75399  80.0000 132.0000 0000000   0.0000 222.0000 15.69614517    11
CTC1_L_00035012-03
1 75400U 26983OA  26070.40831019  .00000000  00000+0  00000-0 0  9994
2 75400  80.0000 132.0000 0000000   0.0000 312.0000 15.69614517    14
CTC1_L_00035012-04
1 75401U 24158JM  26070.40831019  .00000000  00000+0  00000-0 0  9997
2 75401  80.0000 132.0000 0000000   0.0000  42.0000 15.69614517    15
CTC1_L_00035013-01
1 75402U 22968WR  26070.40831019  .00000000  00000+0  00000-0 0  9995
2 75402  80.0000 144.0000 0000000   0.0000 144.0000 15.69614517    12
CTC1_L_00035013-02
1 75403U 26666WT  26070.40831019  .00000000  00000+0  00000-0 0  9995
2 75403  80.0000 144.0000 0000000   0.0000 234.0000 15.69614517    13
CTC1_L_00035013-03
1 75404U 24671KH  26070.40831019  .00000000  00000+0  00000-0 0  9990
2 75404  80.0000 144.0000 0000000   0.0000 324.0000 15.69614517    14
CTC1_L_00035013-04
1 75405U 22667RN  26070.40831019  .00000000  00000+0  00000-0 0  9994
2 75405  80.0000 144.0000 0000000   0.0000  54.0000 15.69614517    15
CTC1_L_00035014-01
1 75406U 26371ZL  26070.40831019  .00000000  00000+0  00000-0 0  9991
2 75406  80.0000 156.0000 0000000   0.0000 156.0000 15.69614517    12
CTC1_L_00035014-02
1 75407U 24127PQ  26070.40831019  .00000000  00000+0  00000-0 0  9999
2 75407  80.0000 156.0000 0000000   0.0000 246.0000 15.69614517    13
CTC1_L_00035014-03
1 75408U 25296FW  26070.40831019  .00000000  00000+0  00000-0 0  9998
2 75408  80.0000 156.0000 0000000   0.0000 336.0000 15.69614517    14
CTC1_L_00035014-04
1 75409U 23305IW  26070.40831019  .00000000  00000+0  00000-0 0  9998
2 75409  80.0000 156.0000 0000000   0.0000  66.0000 15.69614517    15
CTC1_L_00035015-01
1 75410U 22667ON  26070.40831019  .00000000  00000+0  00000-0 0  9990
2 75410  80.0000 168.0000 0000000   0.0000 168.0000 15.69614517    13
CTC1_L_00035015-02
1 75411U 25428BK  26070.40831019  .00000000  00000+0  00000-0 0  9999
2 75411  80.0000 168.0000 0000000   0.0000 258.0000 15.69614517    14
CTC1_L_00035015-03
1 75412U 25323SE  26070.40831019  .00000000  00000+0  00000-0 0  9994
2 75412  80.0000 168.0000 0000000   0.0000 348.0000 15.69614517    15
CTC1_L_00035015-04
1 75413U 24651GJ  26070.40831019  .00000000  00000+0  00000-0 0  9998
2 75413  80.0000 168.0000 0000000   0.0000  78.0000 15.69614517    16
CTC1_L_00035016-01
1 75414U 22233XN  26070.40831019  .00000000  00000+0  00000-0 0  9993
2 75414  80.0000 180.0000 0000000   0.0000 180.0000 15.69614517    15
CTC1_L_00035016-02
1 75415U 22989BW  26070.40831019  .00000000  00000+0  00000-0 0  9992
2 75415  80.0000 180.0000 0000000   0.0000 270.0000 15.69614517    16
